COMMENT,ORIGINATOR,NORAD_CAT_ID,OBJECT_NAME,OBJECT_TYPE,CLASSIFICATION_TYPE,INTLDES,EPOCH,EPOCH_MICROSECONDS,MEAN_MOTION,ECCENTRICITY,INCLINATION,RA_OF_ASC_NODE,ARG_OF_PERICENTER,MEAN_ANOMALY,EPHEMERIS_TYPE,ELEMENT_SET_NO,REV_AT_EPOCH,BSTAR,MEAN_MOTION_DOT,MEAN_MOTION_DDOT,FILE,TLE_LINE0,TLE_LINE1,TLE_LINE2,OBJECT_ID,OBJECT_NUMBER,SEMIMAJOR_AXIS,PERIOD,APOGEE,PERIGEE,DECAYED,date
GENERATED VIA SPACETRACK.ORG API,18 SPCS,48893,SPACEBEE-106,PAYLOAD,U,21059Q,2023/2/22 7:28,58784,15.23196967,0.0008324,97.5811,188.3421,314.836,45.22,0,999,9185,0.0011433,0.00027068,0,3824148,0 SPACEBEE-106,1 48893U 21059Q   23053.31150531  .00027068  00000-0  11433-2 0  9998,2 48893  97.5811 188.3421 0008324 314.8360  45.2200 15.23196967 91859,2021-059Q,48893,6874.342,94.538,501.929,490.485,0,2023/4/26
GENERATED VIA SPACETRACK.ORG API,18 SPCS,48893,SPACEBEE-106,PAYLOAD,U,21059Q,2023/2/22 21:39,542464,15.23231585,0.0008307,97.5812,188.9387,312.6036,47.4499,0,999,9194,0.0011628,0.00027561,0,3825529,0 SPACEBEE-106,1 48893U 21059Q   23053.90273776  .00027561  00000-0  11628-2 0  9994,2 48893  97.5812 188.9387 0008307 312.6036  47.4499 15.23231585 91944,2021-059Q,48893,6874.238,94.536,501.813,490.392,0,2023/4/27
GENERATED VIA SPACETRACK.ORG API,18 SPCS,48893,SPACEBEE-106,PAYLOAD,U,21059Q,2023/2/23 2:23,817280,15.23241246,0.0008221,97.5812,189.1379,312.2406,47.8133,0,999,9197,0.0011843,0.00028081,0,3826115,0 SPACEBEE-106,1 48893U 21059Q   23054.09981270  .00028081  00000-0  11843-2 0  9997,2 48893  97.5812 189.1379 0008221 312.2406  47.8133 15.23241246 91977,2021-059Q,48893,6874.209,94.535,501.725,490.422,0,2023/4/28
GENERATED VIA SPACETRACK.ORG API,18 SPCS,48893,SPACEBEE-106,PAYLOAD,U,21059Q,2023/2/23 8:42,601824,15.23259092,0.0008272,97.5811,189.4033,311.1651,48.8871,0,999,9201,0.001295,0.00030741,0,3828819,0 SPACEBEE-106,1 48893U 21059Q   23054.36257641  .00030741  00000-0  12950-2 0  9991,2 48893  97.5811 189.4033 0008272 311.1651  48.8871 15.23259092 92016,2021-059Q,48893,6874.155,94.534,501.706,490.334,0,2023/4/29
GENERATED VIA SPACETRACK.ORG API,18 SPCS,48893,SPACEBEE-106,PAYLOAD,U,21059Q,2023/2/24 8:21,56448,15.23315939,0.0008298,97.5809,190.3984,307.3024,52.7455,0,999,9216,0.0012311,0.00029264,0,3832390,0 SPACEBEE-106,1 48893U 21059Q   23055.34791732  .00029264  00000-0  12311-2 0  9993,2 48893  97.5809 190.3984 0008298 307.3024  52.7455 15.23315939 92169,2021-059Q,48893,6873.984,94.531,501.553,490.145,0,2023/4/30
GENERATED VIA SPACETRACK.ORG API,18 SPCS,48893,SPACEBEE-106,PAYLOAD,U,21059Q,2023/2/24 8:21,56448,15.23315939,0.0008298,97.5809,190.3984,307.3024,52.7455,0,999,9216,0.0012311,0.00029264,0,3832867,0 SPACEBEE-106,1 48893U 21059Q   23055.34791732  .00029264  00000-0  12311-2 0  9993,2 48893  97.5809 190.3984 0008298 307.3024  52.7455 15.23315939 92169,2021-059Q,48893,6873.984,94.531,501.553,490.145,0,
GENERATED VIA SPACETRACK.ORG API,18 SPCS,48893,SPACEBEE-106,PAYLOAD,U,21059Q,2023/2/24 19:23,967040,15.23336233,0.00083,97.5808,190.8625,305.3592,54.6868,0,999,9223,0.0009348,0.00022195,0,3835059,0 SPACEBEE-106,1 48893U 21059Q   23055.80773110  .00022195  00000-0  93480-3 0  9997,2 48893  97.5808 190.8625 0008300 305.3592  54.6868 15.23336233 92234,2021-059Q,48893,6873.923,94.529,501.493,490.083,0,
GENERATED VIA SPACETRACK.ORG API,18 SPCS,48893,SPACEBEE-106,PAYLOAD,U,21059Q,2023/2/25 7:59,608896,15.23362034,0.0008328,97.5807,191.3935,303.5985,56.4456,0,999,9231,0.001009,0.00023987,0,3836939,0 SPACEBEE-106,1 48893U 21059Q   23056.33322464  .00023987  00000-0  10090-2 0  9993,2 48893  97.5807 191.3935 0008328 303.5985  56.4456 15.23362034 92319,2021-059Q,48893,6873.845,94.528,501.435,489.986,0,
GENERATED VIA SPACETRACK.ORG API,18 SPCS,48893,SPACEBEE-106,PAYLOAD,U,21059Q,2023/2/25 14:18,622240,15.23375656,0.0008304,97.5808,191.6586,302.5186,57.5248,0,999,9235,0.0010605,0.00025229,0,3837605,0 SPACEBEE-106,1 48893U 21059Q   23056.59596785  .00025229  00000-0  10605-2 0  9993,2 48893  97.5808 191.6586 0008304 302.5186  57.5248 15.23375656 92350,2021-059Q,48893,6873.804,94.527,501.377,489.961,0,
GENERATED VIA SPACETRACK.ORG API,18 SPCS,48893,SPACEBEE-106,PAYLOAD,U,21059Q,2023/2/25 20:36,456736,15.23391605,0.000834,97.5807,191.9239,301.4687,58.5734,0,999,9239,0.0011928,0.00028412,0,3839003,0 SPACEBEE-106,1 48893U 21059Q   23056.85870899  .00028412  00000-0  11928-2 0  9999,2 48893  97.5807 191.9239 0008340 301.4687  58.5734 15.23391605 92398,2021-059Q,48893,6873.756,94.526,501.354,489.889,0,
GENERATED VIA SPACETRACK.ORG API,18 SPCS,48893,SPACEBEE-106,PAYLOAD,U,21059Q,2023/2/26 7:38,313600,15.23420934,0.0008376,97.5808,192.3884,300.6178,59.4232,0,999,9246,0.0013496,0.00032201,0,3840894,0 SPACEBEE-106,1 48893U 21059Q   23057.31849900  .00032201  00000-0  13496-2 0  9993,2 48893  97.5808 192.3884 0008376 300.6178  59.4232 15.23420934 92464,2021-059Q,48893,6873.668,94.524,501.291,489.776,0,
GENERATED VIA SPACETRACK.ORG API,18 SPCS,48893,SPACEBEE-106,PAYLOAD,U,21059Q,2023/2/26 7:38,313600,15.23420934,0.0008376,97.5808,192.3884,300.6178,59.4232,0,999,9246,0.0013496,0.00032201,0,3841853,0 SPACEBEE-106,1 48893U 21059Q   23057.31849900  .00032201  00000-0  13496-2 0  9993,2 48893  97.5808 192.3884 0008376 300.6178  59.4232 15.23420934 92464,2021-059Q,48893,6873.668,94.524,501.291,489.776,0,
GENERATED VIA SPACETRACK.ORG API,18 SPCS,48893,SPACEBEE-106,PAYLOAD,U,21059Q,2023/2/27 7:17,571808,15.2349032,0.0008218,97.5807,193.384,296.8359,63.2037,0,999,9261,0.0017167,0.00041111,0,3846396,0 SPACEBEE-106,1 48893U 21059Q   23058.30373347  .00041111  00000-0  17167-2 0  9999,2 48893  97.5807 193.3840 0008218 296.8359  63.2037 15.23490320 92617,2021-059Q,48893,6873.459,94.52,500.973,489.676,0,
GENERATED VIA SPACETRACK.ORG API,18 SPCS,48893,SPACEBEE-106,PAYLOAD,U,21059Q,2023/2/27 7:17,571808,15.2349032,0.0008218,97.5807,193.384,296.8359,63.2037,0,999,9261,0.0017167,0.00041111,0,3846538,0 SPACEBEE-106,1 48893U 21059Q   23058.30373347  .00041111  00000-0  17167-2 0  9999,2 48893  97.5807 193.3840 0008218 296.8359  63.2037 15.23490320 92617,2021-059Q,48893,6873.459,94.52,500.973,489.676,0,
GENERATED VIA SPACETRACK.ORG API,18 SPCS,48893,SPACEBEE-106,PAYLOAD,U,21059Q,2023/2/28 8:30,493056,15.23587121,0.0008174,97.5805,194.4456,292.8349,67.2024,0,999,9277,0.0017835,0.00042846,0,3847419,0 SPACEBEE-106,1 48893U 21059Q   23059.35458904  .00042846  00000-0  17835-2 0  9996,2 48893  97.5805 194.4456 0008174 292.8349  67.2024 15.23587121 92779,2021-059Q,48893,6873.168,94.514,500.651,489.415,0,
GENERATED VIA SPACETRACK.ORG API,18 SPCS,48893,SPACEBEE-106,PAYLOAD,U,21059Q,2023/2/28 8:30,493056,15.23587121,0.0008174,97.5805,194.4456,292.8349,67.2024,0,999,9277,0.0017835,0.00042846,0,3847542,0 SPACEBEE-106,1 48893U 21059Q   23059.35458904  .00042846  00000-0  17835-2 0  9996,2 48893  97.5805 194.4456 0008174 292.8349  67.2024 15.23587121 92779,2021-059Q,48893,6873.168,94.514,500.651,489.415,0,
GENERATED VIA SPACETRACK.ORG API,18 SPCS,48893,SPACEBEE-106,PAYLOAD,U,21059Q,2023/2/28 21:07,571456,15.2361709,0.0008234,97.5803,194.9765,290.7695,69.2659,0,999,9285,0.0011484,0.00027531,0,3847656,0 SPACEBEE-106,1 48893U 21059Q   23059.87999504  .00027531  00000-0  11484-2 0  9997,2 48893  97.5803 194.9765 0008234 290.7695  69.2659 15.23617090 92857,2021-059Q,48893,6873.078,94.512,500.602,489.284,0,
GENERATED VIA SPACETRACK.ORG API,18 SPCS,48893,SPACEBEE-106,PAYLOAD,U,21059Q,2023/2/28 22:41,894048,15.23620571,0.000824,97.5803,195.0428,290.5045,69.5307,0,999,9286,0.0011281,0.00027044,0,3848060,0 SPACEBEE-106,1 48893U 21059Q   23059.94567007  .00027044  00000-0  11281-2 0  9998,2 48893  97.5803 195.0428 0008240 290.5045  69.5307 15.23620571 92861,2021-059Q,48893,6873.068,94.512,500.596,489.269,0,
GENERATED VIA SPACETRACK.ORG API,18 SPCS,48893,SPACEBEE-106,PAYLOAD,U,21059Q,2023/3/1 16:02,327136,15.2366897,0.0008286,97.5802,195.7727,288.2534,71.78,0,999,9297,0.001265,0.00030392,0,3848627,0 SPACEBEE-106,1 48893U 21059Q   23060.66808249  .00030392  00000-0  12650-2 0  9996,2 48893  97.5802 195.7727 0008286 288.2534  71.7800 15.23668970 92976,2021-059Q,48893,6872.922,94.509,500.482,489.092,0,
GENERATED VIA SPACETRACK.ORG API,18 SPCS,48893,SPACEBEE-106,PAYLOAD,U,21059Q,2023/3/1 20:45,671104,15.23680543,0.0008325,97.5802,195.9718,287.5639,72.4688,0,999,9300,0.0011687,0.00028074,0,3848834,0 SPACEBEE-106,1 48893U 21059Q   23060.86510036  .00028074  00000-0  11687-2 0  9995,2 48893  97.5802 195.9718 0008325 287.5639  72.4688 15.23680543 93007,2021-059Q,48893,6872.887,94.508,500.474,489.031,0,
GENERATED VIA SPACETRACK.ORG API,18 SPCS,48893,SPACEBEE-106,PAYLOAD,U,21059Q,2023/3/2 14:05,691040,15.23730326,0.0008348,97.5807,196.7021,284.9129,75.1183,0,999,9311,0.001395,0.00033599,0,3849487,0 SPACEBEE-106,1 48893U 21059Q   23061.58748485  .00033599  00000-0  13950-2 0  9999,2 48893  97.5807 196.7021 0008348 284.9129  75.1183 15.23730326 93115,2021-059Q,48893,6872.738,94.505,500.34,488.865,0,
GENERATED VIA SPACETRACK.ORG API,18 SPCS,48893,SPACEBEE-106,PAYLOAD,U,21059Q,2023/3/3 7:26,563936,15.23792416,0.0008312,97.5811,197.4321,282.7726,77.2581,0,999,9322,0.001849,0.00044706,0,3849705,0 SPACEBEE-106,1 48893U 21059Q   23062.30984449  .00044706  00000-0  18490-2 0  9998,2 48893  97.5811 197.4321 0008312 282.7726  77.2581 15.23792416 93226,2021-059Q,48893,6872.551,94.501,500.128,488.704,0,
GENERATED VIA SPACETRACK.ORG API,18 SPCS,48893,SPACEBEE-106,PAYLOAD,U,21059Q,2023/3/3 9:00,253216,15.23786917,0.0008676,97.5781,197.4909,288.3365,71.6802,0,999,9323,0.0014112,0.00034052,0,3850089,0 SPACEBEE-106,1 48893U 21059Q   23062.37551219  .00034052  00000-0  14112-2 0  9990,2 48893  97.5781 197.4909 0008676 288.3365  71.6802 15.23786917 93232,2021-059Q,48893,6872.568,94.501,500.395,488.47,0,
